[{"OBJECT_NAME":"STARLINK-4753","OBJECT_ID":"2022-114AD","EPOCH":"2026-03-09T21:40:04.933632","MEAN_MOTION":15.08835282,"ECCENTRICITY":0.0001585,"INCLINATION":53.2183,"RA_OF_ASC_NODE":293.1946,"ARG_OF_PERICENTER":96.8824,"MEAN_ANOMALY":263.2348,"EPHEMERIS_TYPE":0,"CLASSIFICATION_TYPE":"U","NORAD_CAT_ID":53845,"ELEMENT_SET_NO":999,"REV_AT_EPOCH":19300,"BSTAR":-2.6881632e-5,"MEAN_MOTION_DOT":-7.16e-6,"MEAN_MOTION_DDOT":0},{"OBJECT_NAME":"CZ-2F DEB","OBJECT_ID":"2022-093H","EPOCH":"2026-03-09T22:47:12.359904","MEAN_MOTION":15.21733628,"ECCENTRICITY":0.00740619,"INCLINATION":50.0217,"RA_OF_ASC_NODE":315.3952,"ARG_OF_PERICENTER":34.8084,"MEAN_ANOMALY":325.7683,"EPHEMERIS_TYPE":0,"CLASSIFICATION_TYPE":"U","NORAD_CAT_ID":53364,"ELEMENT_SET_NO":999,"REV_AT_EPOCH":19831,"BSTAR":0.00048014935,"MEAN_MOTION_DOT":0.00011557,"MEAN_MOTION_DDOT":0}]
